[{"OBJECT_NAME":"BEIDOU-3 G1 (C59)","OBJECT_ID":"2018-085A","EPOCH":"2026-03-04T18:49:51.779712","MEAN_MOTION":1.0026848,"ECCENTRICITY":0.0001365,"INCLINATION":2.8116,"RA_OF_ASC_NODE":100.376,"ARG_OF_PERICENTER":23.2646,"MEAN_ANOMALY":101.3833,"EPHEMERIS_TYPE":0,"CLASSIFICATION_TYPE":"U","NORAD_CAT_ID":43683,"ELEMENT_SET_NO":999,"REV_AT_EPOCH":2701,"BSTAR":0,"MEAN_MOTION_DOT":-2.88e-6,"MEAN_MOTION_DDOT":0},{"OBJECT_NAME":"COSMOS 2529 (757)","OBJECT_ID":"2018-086A","EPOCH":"2026-02-27T08:59:15.336384","MEAN_MOTION":2.1310188,"ECCENTRICITY":0.00079597,"INCLINATION":64.2955,"RA_OF_ASC_NODE":196.2992,"ARG_OF_PERICENTER":253.0448,"MEAN_ANOMALY":106.8346,"EPHEMERIS_TYPE":0,"CLASSIFICATION_TYPE":"U","NORAD_CAT_ID":43687,"ELEMENT_SET_NO":999,"REV_AT_EPOCH":5694,"BSTAR":0,"MEAN_MOTION_DOT":8.0e-8,"MEAN_MOTION_DDOT":0},{"OBJECT_NAME":"BEIDOU-3 M17 (C36)","OBJECT_ID":"2018-093A","EPOCH":"2026-03-02T11:14:19.656384","MEAN_MOTION":1.86228347,"ECCENTRICITY":0.00069943,"INCLINATION":54.1714,"RA_OF_ASC_NODE":185.9163,"ARG_OF_PERICENTER":297.4131,"MEAN_ANOMALY":70.7484,"EPHEMERIS_TYPE":0,"CLASSIFICATION_TYPE":"U","NORAD_CAT_ID":43706,"ELEMENT_SET_NO":999,"REV_AT_EPOCH":4955,"BSTAR":0,"MEAN_MOTION_DOT":-2.6e-7,"MEAN_MOTION_DDOT":0},{"OBJECT_NAME":"BEIDOU-3 M18 (C37)","OBJECT_ID":"2018-093B","EPOCH":"2026-03-02T07:38:17.290752","MEAN_MOTION":1.86226384,"ECCENTRICITY":0.000602,"INCLINATION":54.1724,"RA_OF_ASC_NODE":185.9133,"ARG_OF_PERICENTER":341.6195,"MEAN_ANOMALY":18.311,"EPHEMERIS_TYPE":0,"CLASSIFICATION_TYPE":"U","NORAD_CAT_ID":43707,"ELEMENT_SET_NO":999,"REV_AT_EPOCH":4954,"BSTAR":0,"MEAN_MOTION_DOT":-2.8e-7,"MEAN_MOTION_DDOT":0},{"OBJECT_NAME":"GPS BIII-1  (PRN 04)","OBJECT_ID":"2018-109A","EPOCH":"2026-03-04T13:12:28.622592","MEAN_MOTION":2.00556803,"ECCENTRICITY":0.0037913,"INCLINATION":55.6151,"RA_OF_ASC_NODE":96.3135,"ARG_OF_PERICENTER":198.3129,"MEAN_ANOMALY":333.9774,"EPHEMERIS_TYPE":0,"CLASSIFICATION_TYPE":"U","NORAD_CAT_ID":43873,"ELEMENT_SET_NO":999,"REV_AT_EPOCH":5297,"BSTAR":0,"MEAN_MOTION_DOT":1.2e-7,"MEAN_MOTION_DDOT":0},{"OBJECT_NAME":"BEIDOU-3 IGSO-1 (C38)","OBJECT_ID":"2019-023A","EPOCH":"2026-03-04T19:54:46.539648","MEAN_MOTION":1.00270861,"ECCENTRICITY":0.0026002,"INCLINATION":58.5544,"RA_OF_ASC_NODE":38.721,"ARG_OF_PERICENTER":236.4823,"MEAN_ANOMALY":305.2336,"EPHEMERIS_TYPE":0,"CLASSIFICATION_TYPE":"U","NORAD_CAT_ID":44204,"ELEMENT_SET_NO":999,"REV_AT_EPOCH":616,"BSTAR":0,"MEAN_MOTION_DOT":-2.08e-6,"MEAN_MOTION_DDOT":0},{"OBJECT_NAME":"BEIDOU-2 G8 (C01)","OBJECT_ID":"2019-027A","EPOCH":"2026-03-04T10:17:14.615232","MEAN_MOTION":1.00247794,"ECCENTRICITY":0.0011711,"INCLINATION":1.3928,"RA_OF_ASC_NODE":74.282,"ARG_OF_PERICENTER":280.8825,"MEAN_ANOMALY":105.699,"EPHEMERIS_TYPE":0,"CLASSIFICATION_TYPE":"U","NORAD_CAT_ID":44231,"ELEMENT_SET_NO":999,"REV_AT_EPOCH":2503,"BSTAR":0,"MEAN_MOTION_DOT":-2.63e-6,"MEAN_MOTION_DDOT":0},{"OBJECT_NAME":"COSMOS 2534 (758)","OBJECT_ID":"2019-030A","EPOCH":"2026-03-04T19:44:38.791680","MEAN_MOTION":2.13102294,"ECCENTRICITY":0.0009608,"INCLINATION":64.3687,"RA_OF_ASC_NODE":196.1275,"ARG_OF_PERICENTER":279.965,"MEAN_ANOMALY":74.0554,"EPHEMERIS_TYPE":0,"CLASSIFICATION_TYPE":"U","NORAD_CAT_ID":44299,"ELEMENT_SET_NO":999,"REV_AT_EPOCH":5269,"BSTAR":0,"MEAN_MOTION_DOT":8.0e-8,"MEAN_MOTION_DDOT":0},{"OBJECT_NAME":"BEIDOU-3 IGSO-2 (C39)","OBJECT_ID":"2019-035A","EPOCH":"2026-02-26T16:31:51.989952","MEAN_MOTION":1.00247364,"ECCENTRICITY":0.00387345,"INCLINATION":55.2338,"RA_OF_ASC_NODE":159.8353,"ARG_OF_PERICENTER":206.4752,"MEAN_ANOMALY":153.7223,"EPHEMERIS_TYPE":0,"CLASSIFICATION_TYPE":"U","NORAD_CAT_ID":44337,"ELEMENT_SET_NO":999,"REV_AT_EPOCH":2456,"BSTAR":0,"MEAN_MOTION_DOT":-1.76e-6,"MEAN_MOTION_DDOT":0},{"OBJECT_NAME":"GPS BIII-2  (PRN 18)","OBJECT_ID":"2019-056A","EPOCH":"2026-03-04T04:31:28.685280","MEAN_MOTION":2.00568296,"ECCENTRICITY":0.00580287,"INCLINATION":55.6848,"RA_OF_ASC_NODE":335.3179,"ARG_OF_PERICENTER":198.1482,"MEAN_ANOMALY":333.1946,"EPHEMERIS_TYPE":0,"CLASSIFICATION_TYPE":"U","NORAD_CAT_ID":44506,"ELEMENT_SET_NO":999,"REV_AT_EPOCH":4796,"BSTAR":0,"MEAN_MOTION_DOT":-9.9e-7,"MEAN_MOTION_DDOT":0},{"OBJECT_NAME":"BEIDOU-3 M24 (C46)","OBJECT_ID":"2019-061A","EPOCH":"2026-03-03T23:58:45.264000","MEAN_MOTION":1.86228942,"ECCENTRICITY":0.0008489,"INCLINATION":54.3992,"RA_OF_ASC_NODE":186.2751,"ARG_OF_PERICENTER":19.7399,"MEAN_ANOMALY":340.2521,"EPHEMERIS_TYPE":0,"CLASSIFICATION_TYPE":"U","NORAD_CAT_ID":44542,"ELEMENT_SET_NO":999,"REV_AT_EPOCH":4383,"BSTAR":0,"MEAN_MOTION_DOT":-1.0e-7,"MEAN_MOTION_DDOT":0},{"OBJECT_NAME":"BEIDOU-3 M23 (C45)","OBJECT_ID":"2019-061B","EPOCH":"2026-03-03T07:40:19.297056","MEAN_MOTION":1.8622717,"ECCENTRICITY":0.00050771,"INCLINATION":54.3976,"RA_OF_ASC_NODE":186.266,"ARG_OF_PERICENTER":14.221,"MEAN_ANOMALY":162.4807,"EPHEMERIS_TYPE":0,"CLASSIFICATION_TYPE":"U","NORAD_CAT_ID":44543,"ELEMENT_SET_NO":999,"REV_AT_EPOCH":4382,"BSTAR":0,"MEAN_MOTION_DOT":-1.8e-7,"MEAN_MOTION_DDOT":0},{"OBJECT_NAME":"EUTELSAT 5 WEST B (EGNOS/PRN 121)","OBJECT_ID":"2019-067A","EPOCH":"2026-03-04T07:42:38.710368","MEAN_MOTION":1.00272617,"ECCENTRICITY":0.00031974,"INCLINATION":0.0952,"RA_OF_ASC_NODE":310.151,"ARG_OF_PERICENTER":41.8937,"MEAN_ANOMALY":280.6517,"EPHEMERIS_TYPE":0,"CLASSIFICATION_TYPE":"U","NORAD_CAT_ID":44624,"ELEMENT_SET_NO":999,"REV_AT_EPOCH":2338,"BSTAR":0,"MEAN_MOTION_DOT":-5.4e-7,"MEAN_MOTION_DDOT":0},{"OBJECT_NAME":"BEIDOU-3 IGSO-3 (C40)","OBJECT_ID":"2019-073A","EPOCH":"2026-03-04T00:03:23.548032","MEAN_MOTION":1.00269449,"ECCENTRICITY":0.0040524,"INCLINATION":54.979,"RA_OF_ASC_NODE":282.0342,"ARG_OF_PERICENTER":188.9597,"MEAN_ANOMALY":171.021,"EPHEMERIS_TYPE":0,"CLASSIFICATION_TYPE":"U","NORAD_CAT_ID":44709,"ELEMENT_SET_NO":999,"REV_AT_EPOCH":2340,"BSTAR":0,"MEAN_MOTION_DOT":-1.58e-6,"MEAN_MOTION_DDOT":0},{"OBJECT_NAME":"BEIDOU-3 M22 (C44)","OBJECT_ID":"2019-078A","EPOCH":"2026-03-04T09:00:38.803968","MEAN_MOTION":1.86231851,"ECCENTRICITY":0.0007273,"INCLINATION":54.0307,"RA_OF_ASC_NODE":303.5169,"ARG_OF_PERICENTER":35.6258,"MEAN_ANOMALY":324.4804,"EPHEMERIS_TYPE":0,"CLASSIFICATION_TYPE":"U","NORAD_CAT_ID":44793,"ELEMENT_SET_NO":999,"REV_AT_EPOCH":4269,"BSTAR":0,"MEAN_MOTION_DOT":-6.0e-7,"MEAN_MOTION_DDOT":0},{"OBJECT_NAME":"BEIDOU-3 M21 (C43)","OBJECT_ID":"2019-078B","EPOCH":"2026-03-03T23:28:24.953376","MEAN_MOTION":1.86227541,"ECCENTRICITY":0.00059118,"INCLINATION":54.0042,"RA_OF_ASC_NODE":303.4937,"ARG_OF_PERICENTER":39.9322,"MEAN_ANOMALY":320.1697,"EPHEMERIS_TYPE":0,"CLASSIFICATION_TYPE":"U","NORAD_CAT_ID":44794,"ELEMENT_SET_NO":999,"REV_AT_EPOCH":4269,"BSTAR":0,"MEAN_MOTION_DOT":-5.8e-7,"MEAN_MOTION_DDOT":0},{"OBJECT_NAME":"COSMOS 2544 (759)","OBJECT_ID":"2019-088A","EPOCH":"2026-03-04T09:13:00.350976","MEAN_MOTION":2.13101811,"ECCENTRICITY":0.00157591,"INCLINATION":65.5058,"RA_OF_ASC_NODE":77.2275,"ARG_OF_PERICENTER":259.6012,"MEAN_ANOMALY":100.2648,"EPHEMERIS_TYPE":0,"CLASSIFICATION_TYPE":"U","NORAD_CAT_ID":44850,"ELEMENT_SET_NO":999,"REV_AT_EPOCH":4848,"BSTAR":0,"MEAN_MOTION_DOT":1.5e-7,"MEAN_MOTION_DDOT":0}]
